{"fetched_at":"2026-03-30T06:02:59Z","count":15439,"tles":[{"name":"AETHER-3","line1":"1 67374U 26004M   26087.93974301  .00003738  00000+0  41244-3 0  9996","line2":"2 67374  97.7997  87.8379 0005574  48.6784 311.4912 14.88057726 11367","category":"Other"}]}